#aV2012  6 20  0  0  0.00000000     288 DD+AD WGS84 FIT  NGA
## 1693 259200.00000000   300.00000000 56098 0.0000000000000
+   31     1  2  3  4  5  6  7  8  9 10 11 12 13 14 15 16 17
+         18 19 20 21 22 23 25 26 27 28 29 30 31 32  0  0  0
+          0  0  0  0  0  0  0  0  0  0  0  0  0  0  0  0  0
+          0  0  0  0  0  0  0  0  0  0  0  0  0  0  0  0  0
+          0  0  0  0  0  0  0  0  0  0  0  0  0  0  0  0  0
++         2  2  2  2  2  2  2  2  2  2  2  2  2  2  2  2  2
++         2  2  2  2  2  2  2  2  2  2  2  2  2  2  2  0  0
++         0  0  0  0  0  0  0  0  0  0  0  0  0  0  0  0  0
++         0  0  0  0  0  0  0  0  0  0  0  0  0  0  0  0  0
++         0  0  0  0  0  0  0  0  0  0  0  0  0  0  0  0  0
%c cc cc ccc ccc cccc cccc cccc cccc ccccc ccccc ccccc ccccc
%c cc cc ccc ccc cccc cccc cccc cccc ccccc ccccc ccccc ccccc
%f  0.0000000  0.000000000  0.00000000000  0.000000000000000
%f  0.0000000  0.000000000  0.00000000000  0.000000000000000
%i    0    0    0    0      0      0      0      0         0
%i    0    0    0    0      0      0      0      0         0
/*      NGA, ST. LOUIS,MO.                                  
/*   EPHEMERIS COMPUTED FROM  1 DAYS OF DATA
/*   EPOCHA SMOOTHER  
/* CCCCCCCCCCCCCCCCCCCCCCCCCCCCCCCCCCCCCCCCCCCCCCCCCCCCCCCCC
*  2012  6 20 19 30  0.00000000                                                 
P  1   5444.930301 -17950.696537 -18794.134928    262.222217                    
V  1  21667.639366 -10120.036023  15985.423530      0.016549                    
P  2 -22539.269133  13491.525960    970.864433    394.294538                    
V  2  -2904.019033  -2927.378399 -31540.764446      0.012146                    
P  3  11093.318830 -16330.902942  17167.127936     64.955866                    
V  3   4856.244587  22540.110422  18087.752321      0.049124                    
P  4 -24195.104782   4038.003989 -10820.518233    220.188092                    
V  4  10390.003457  -8774.872855 -26821.777067      0.113774                    
P  5 -15360.377370   7574.456277  20313.155945   -327.237307                    
V  5 -21475.030628 -14401.893506 -10733.690016     -0.036267                    
P  6  13989.242714 -11350.059748  19539.565042     16.212952                    
V  6   2307.748372  24671.664314  13065.477028     -0.039301                    
P  7  -8868.326978 -12130.459156  21934.226353     92.575711                    
V  7  24584.136502 -12854.779660   2575.943781      0.036889                    
P  8 -20707.217015  -3082.868590  16759.190886      1.522189                    
V  8  18966.522097  -8678.512764  21365.645803      0.000948                    
P  9  -9716.406893  18366.309964 -17129.778732    166.410216                    
V  9 -18598.580506   8962.124381  20800.110559      0.026970                    
P 10 -23927.931634  -7976.044637   8687.730912    -42.103591                    
V 10  -7990.771538  -8435.270088 -28513.880093     -0.013060                    
P 11   8282.174169 -22044.643217 -12367.426466   -273.666861                    
V 11  14017.083965  -7735.360544  24248.247348     -0.039906                    
P 12   2181.108879  17426.943370 -19998.246766     75.613220                    
V 12 -21604.892281 -13100.902151 -13588.924599      0.020729                    
P 13  -6158.113204 -22031.032175  13262.449777    199.733778                    
V 13   3788.986737 -16738.947292 -25870.842104     -0.024360                    
P 14  13952.666759   6316.058932 -21536.759103    205.548970                    
V 14  -2992.938413  27543.423645   5943.928934      0.007867                    
P 15  -4093.160192  25551.231333   5452.264338    -91.860949                    
V 15  -3336.719589  -7010.354549  30517.189963     -0.002515                    
P 16  15639.683620  -6094.781351  20663.549100   -238.785543                    
V 16  21248.688774  15164.462229 -11298.996163     -0.011667                    
P 17 -14086.371779  -7876.446756 -20957.992863    119.577599                    
V 17   2384.899807 -26872.924929   8194.594732     -0.029015                    
P 18  19215.134850  17644.097816   6306.118557    201.477008                    
V 18  -8086.463232  -1223.534219  29447.772521      0.018076                    
P 19   7832.700570 -24134.324898   7061.274813   -277.123027                    
V 19   1914.590846   9424.530362  30269.589067     -0.036625                    
P 20  -6693.920116 -18822.025458 -17691.512161     64.054099                    
V 20  20426.795891   9019.715089 -17414.021170      0.002868                    
P 21  14005.375736  10085.598438  20804.633107   -231.494467                    
V 21 -22003.615854  12503.964826   8387.531772     -0.024247                    
P 22  24015.080191   8616.564024  -7430.388148    144.736590                    
V 22   6284.390105   8194.513598  28955.786078      0.001360                    
P 23   -571.890759 -26238.229196   2398.189988    193.376501                    
V 23   3275.886224  -2898.725320 -31798.832595     -0.038044                    
P 25  15524.144984  18431.637556 -11278.221555     35.726816                    
V 25 -13281.368979  -5532.950506 -27349.675545      0.006314                    
P 26 -12250.982395  17154.828934  15308.655220   -368.980975                    
V 26    478.206374 -20757.374833  23085.224212      0.105009                    
P 27 -14728.052226  17884.888718 -11906.210309    400.811946                    
V 27 -15184.032748   6214.284495  27249.865353      0.040987                    
P 28 -23176.631770 -12106.233192  -4721.299987    156.781041                    
V 28  -4304.090948  -5478.092924  31278.344373      0.040120                    
P 29   5068.807368  24192.159932   9844.280549    325.452147                    
V 29  -3287.978885  12181.742996 -28380.853089      0.038752                    
P 30  22468.484969    187.564668  13801.077542   -249.024288                    
V 30  15310.112679   9992.905194 -24423.483484     -0.226853                    
P 31  24365.135488  -5736.039417  -9052.309462    254.272010                    
V 31  -9520.908752   6987.954834 -29205.989033      0.029094                    
P 32   2742.490333 -16320.540256 -20660.067064   -456.539645                    
V 32  21767.660106  15369.390450  -8687.862404     -0.040709                    
EOF
